STARLINK-2180           
1 47762U 21017AS  26068.69398885  .00025397  00000+0  67693-3 0  9994
2 47762  53.1608 219.0004 0000734  49.2837 310.8230 15.38029481277659
GHOST-4                 
1 59133U 24043AM  26068.89169521  .00018691  00000+0  46286-3 0  9990
2 59133  97.5443 210.3538 0008418 209.2887 150.7888 15.40436625112236
