[{"OBJECT_NAME":"STARLINK-2180","OBJECT_ID":"2021-017AS","EPOCH":"2026-03-09T16:39:20.636640","MEAN_MOTION":15.38029481,"ECCENTRICITY":7.347e-5,"INCLINATION":53.1608,"RA_OF_ASC_NODE":219.0004,"ARG_OF_PERICENTER":49.2837,"MEAN_ANOMALY":310.823,"EPHEMERIS_TYPE":0,"CLASSIFICATION_TYPE":"U","NORAD_CAT_ID":47762,"ELEMENT_SET_NO":999,"REV_AT_EPOCH":27765,"BSTAR":0.00067692764,"MEAN_MOTION_DOT":0.00025397,"MEAN_MOTION_DDOT":0},{"OBJECT_NAME":"GHOST-4","OBJECT_ID":"2024-043AM","EPOCH":"2026-03-09T21:24:02.467008","MEAN_MOTION":15.40436625,"ECCENTRICITY":0.00084177,"INCLINATION":97.5443,"RA_OF_ASC_NODE":210.3538,"ARG_OF_PERICENTER":209.2887,"MEAN_ANOMALY":150.7888,"EPHEMERIS_TYPE":0,"CLASSIFICATION_TYPE":"U","NORAD_CAT_ID":59133,"ELEMENT_SET_NO":999,"REV_AT_EPOCH":11223,"BSTAR":0.00046285674,"MEAN_MOTION_DOT":0.00018691,"MEAN_MOTION_DDOT":0}]
